STARLINK-36810          
1 67898U 26035V   26062.16668981 -.00917792  28912-3 -15346-2 0  9998
2 67898  97.2759 354.0021 0001506 136.3059 122.3159 16.02918388  2701
STARLINK-36878          
1 67899U 26035W   26062.16668981 -.00953242  31090-3 -15761-2 0  9991
2 67899  97.2756 354.0050 0001043  82.6593 182.2820 16.03115753  2709
STARLINK-36361          
1 67900U 26035X   26062.16668981 -.00938571  30251-3 -15410-2 0  9991
2 67900  97.2756 354.0064 0000953  90.0775 178.3307 16.03233165  2705
STARLINK-36336          
1 67901U 26035Y   26062.16668981 -.00960261  31679-3 -15468-2 0  9991
2 67901  97.2758 354.0112 0001153 145.3675 133.5230 16.03558295  2755
STARLINK-36876          
1 67902U 26035Z   26062.16668981 -.00948375  30869-3 -15493-2 0  9992
2 67902  97.2760 354.0085 0001462 131.8270 139.5959 16.03317693  2706
STARLINK-36257          
1 67903U 26035AA  26062.16668981 -.00950651  31046-3 -15433-2 0  9995
2 67903  97.2757 354.0089 0001089 122.8158 151.7697 16.03425614  2750
STARLINK-36814          
1 67904U 26036A   26062.16668981 -.01622519  00000+0 -81490-2 0  9995
2 67904  42.9949 289.7924 0001958 277.7459 198.8916 15.83689177  2605
STARLINK-36729          
1 67905U 26036B   26062.16668981 -.01609955  00000+0 -79881-2 0  9996
2 67905  42.9945 289.7821 0001816 282.4651 198.0159 15.83919224  2608
STARLINK-36763          
1 67906U 26036C   26062.16668981 -.01632262  00000+0 -80315-2 0  9998
2 67906  42.9943 289.7721 0001617 285.0932 199.2434 15.84136453  2601
STARLINK-36742          
1 67907U 26036D   26062.16668981 -.01615808  00000+0 -78541-2 0  9994
2 67907  42.9946 289.7626 0001895 276.8629 211.2346 15.84353236  2605
STARLINK-36827          
1 67908U 26036E   26062.16668981 -.01624600  00000+0 -78400-2 0  9999
2 67908  42.9945 289.7529 0001507 279.6965 212.2749 15.84523542  2608
STARLINK-36822          
1 67909U 26036F   26062.16668981 -.01615551  00000+0 -77201-2 0  9993
2 67909  42.9947 289.7437 0001706 281.7258 214.0237 15.84705798  2606
