CCSDS_OMM_VERS = 2.0
CREATION_DATE  = 
ORIGINATOR     = 

OBJECT_NAME    = STARLINK-36810
OBJECT_ID      = 2026-035V
CENTER_NAME    = EARTH
REF_FRAME      = TEME
TIME_SYSTEM    = UTC
MEAN_ELEMENT_THEORY = SGP/SGP4

EPOCH          = 2026-03-03T04:00:01.999584
MEAN_MOTION    = 16.02918388
ECCENTRICITY   = .0001506
INCLINATION    = 97.2759
RA_OF_ASC_NODE = 354.0021
ARG_OF_PERICENTER = 136.3059
MEAN_ANOMALY   = 122.3159

EPHEMERIS_TYPE = 0
CLASSIFICATION_TYPE = U
NORAD_CAT_ID   = 67898
ELEMENT_SET_NO = 999
REV_AT_EPOCH   = 270
BSTAR          = -.15346E-2
MEAN_MOTION_DOT = -.917792E-2
MEAN_MOTION_DDOT = .28912E-3

CCSDS_OMM_VERS = 2.0
CREATION_DATE  = 
ORIGINATOR     = 

OBJECT_NAME    = STARLINK-36878
OBJECT_ID      = 2026-035W
CENTER_NAME    = EARTH
REF_FRAME      = TEME
TIME_SYSTEM    = UTC
MEAN_ELEMENT_THEORY = SGP/SGP4

EPOCH          = 2026-03-03T04:00:01.999584
MEAN_MOTION    = 16.03115753
ECCENTRICITY   = .0001043
INCLINATION    = 97.2756
RA_OF_ASC_NODE = 354.0050
ARG_OF_PERICENTER = 82.6593
MEAN_ANOMALY   = 182.2820

EPHEMERIS_TYPE = 0
CLASSIFICATION_TYPE = U
NORAD_CAT_ID   = 67899
ELEMENT_SET_NO = 999
REV_AT_EPOCH   = 270
BSTAR          = -.15761E-2
MEAN_MOTION_DOT = -.953242E-2
MEAN_MOTION_DDOT = .3109E-3

CCSDS_OMM_VERS = 2.0
CREATION_DATE  = 
ORIGINATOR     = 

OBJECT_NAME    = STARLINK-36361
OBJECT_ID      = 2026-035X
CENTER_NAME    = EARTH
REF_FRAME      = TEME
TIME_SYSTEM    = UTC
MEAN_ELEMENT_THEORY = SGP/SGP4

EPOCH          = 2026-03-03T04:00:01.999584
MEAN_MOTION    = 16.03233165
ECCENTRICITY   = .0000953
INCLINATION    = 97.2756
RA_OF_ASC_NODE = 354.0064
ARG_OF_PERICENTER = 90.0775
MEAN_ANOMALY   = 178.3307

EPHEMERIS_TYPE = 0
CLASSIFICATION_TYPE = U
NORAD_CAT_ID   = 67900
ELEMENT_SET_NO = 999
REV_AT_EPOCH   = 270
BSTAR          = -.1541E-2
MEAN_MOTION_DOT = -.938571E-2
MEAN_MOTION_DDOT = .30251E-3

CCSDS_OMM_VERS = 2.0
CREATION_DATE  = 
ORIGINATOR     = 

OBJECT_NAME    = STARLINK-36336
OBJECT_ID      = 2026-035Y
CENTER_NAME    = EARTH
REF_FRAME      = TEME
TIME_SYSTEM    = UTC
MEAN_ELEMENT_THEORY = SGP/SGP4

EPOCH          = 2026-03-03T04:00:01.999584
MEAN_MOTION    = 16.03558295
ECCENTRICITY   = .0001153
INCLINATION    = 97.2758
RA_OF_ASC_NODE = 354.0112
ARG_OF_PERICENTER = 145.3675
MEAN_ANOMALY   = 133.5230

EPHEMERIS_TYPE = 0
CLASSIFICATION_TYPE = U
NORAD_CAT_ID   = 67901
ELEMENT_SET_NO = 999
REV_AT_EPOCH   = 275
BSTAR          = -.15468E-2
MEAN_MOTION_DOT = -.960261E-2
MEAN_MOTION_DDOT = .31679E-3

CCSDS_OMM_VERS = 2.0
CREATION_DATE  = 
ORIGINATOR     = 

OBJECT_NAME    = STARLINK-36876
OBJECT_ID      = 2026-035Z
CENTER_NAME    = EARTH
REF_FRAME      = TEME
TIME_SYSTEM    = UTC
MEAN_ELEMENT_THEORY = SGP/SGP4

EPOCH          = 2026-03-03T04:00:01.999584
MEAN_MOTION    = 16.03317693
ECCENTRICITY   = .0001462
INCLINATION    = 97.2760
RA_OF_ASC_NODE = 354.0085
ARG_OF_PERICENTER = 131.8270
MEAN_ANOMALY   = 139.5959

EPHEMERIS_TYPE = 0
CLASSIFICATION_TYPE = U
NORAD_CAT_ID   = 67902
ELEMENT_SET_NO = 999
REV_AT_EPOCH   = 270
BSTAR          = -.15493E-2
MEAN_MOTION_DOT = -.948375E-2
MEAN_MOTION_DDOT = .30869E-3

CCSDS_OMM_VERS = 2.0
CREATION_DATE  = 
ORIGINATOR     = 

OBJECT_NAME    = STARLINK-36257
OBJECT_ID      = 2026-035AA
CENTER_NAME    = EARTH
REF_FRAME      = TEME
TIME_SYSTEM    = UTC
MEAN_ELEMENT_THEORY = SGP/SGP4

EPOCH          = 2026-03-03T04:00:01.999584
MEAN_MOTION    = 16.03425614
ECCENTRICITY   = .0001089
INCLINATION    = 97.2757
RA_OF_ASC_NODE = 354.0089
ARG_OF_PERICENTER = 122.8158
MEAN_ANOMALY   = 151.7697

EPHEMERIS_TYPE = 0
CLASSIFICATION_TYPE = U
NORAD_CAT_ID   = 67903
ELEMENT_SET_NO = 999
REV_AT_EPOCH   = 275
BSTAR          = -.15433E-2
MEAN_MOTION_DOT = -.950651E-2
MEAN_MOTION_DDOT = .31046E-3

CCSDS_OMM_VERS = 2.0
CREATION_DATE  = 
ORIGINATOR     = 

OBJECT_NAME    = STARLINK-36814
OBJECT_ID      = 2026-036A
CENTER_NAME    = EARTH
REF_FRAME      = TEME
TIME_SYSTEM    = UTC
MEAN_ELEMENT_THEORY = SGP/SGP4

EPOCH          = 2026-03-03T04:00:01.999584
MEAN_MOTION    = 15.83689177
ECCENTRICITY   = .0001958
INCLINATION    = 42.9949
RA_OF_ASC_NODE = 289.7924
ARG_OF_PERICENTER = 277.7459
MEAN_ANOMALY   = 198.8916

EPHEMERIS_TYPE = 0
CLASSIFICATION_TYPE = U
NORAD_CAT_ID   = 67904
ELEMENT_SET_NO = 999
REV_AT_EPOCH   = 260
BSTAR          = -.8149E-2
MEAN_MOTION_DOT = -.1622519E-1
MEAN_MOTION_DDOT = 0

CCSDS_OMM_VERS = 2.0
CREATION_DATE  = 
ORIGINATOR     = 

OBJECT_NAME    = STARLINK-36729
OBJECT_ID      = 2026-036B
CENTER_NAME    = EARTH
REF_FRAME      = TEME
TIME_SYSTEM    = UTC
MEAN_ELEMENT_THEORY = SGP/SGP4

EPOCH          = 2026-03-03T04:00:01.999584
MEAN_MOTION    = 15.83919224
ECCENTRICITY   = .0001816
INCLINATION    = 42.9945
RA_OF_ASC_NODE = 289.7821
ARG_OF_PERICENTER = 282.4651
MEAN_ANOMALY   = 198.0159

EPHEMERIS_TYPE = 0
CLASSIFICATION_TYPE = U
NORAD_CAT_ID   = 67905
ELEMENT_SET_NO = 999
REV_AT_EPOCH   = 260
BSTAR          = -.79881E-2
MEAN_MOTION_DOT = -.1609955E-1
MEAN_MOTION_DDOT = 0

CCSDS_OMM_VERS = 2.0
CREATION_DATE  = 
ORIGINATOR     = 

OBJECT_NAME    = STARLINK-36763
OBJECT_ID      = 2026-036C
CENTER_NAME    = EARTH
REF_FRAME      = TEME
TIME_SYSTEM    = UTC
MEAN_ELEMENT_THEORY = SGP/SGP4

EPOCH          = 2026-03-03T04:00:01.999584
MEAN_MOTION    = 15.84136453
ECCENTRICITY   = .0001617
INCLINATION    = 42.9943
RA_OF_ASC_NODE = 289.7721
ARG_OF_PERICENTER = 285.0932
MEAN_ANOMALY   = 199.2434

EPHEMERIS_TYPE = 0
CLASSIFICATION_TYPE = U
NORAD_CAT_ID   = 67906
ELEMENT_SET_NO = 999
REV_AT_EPOCH   = 260
BSTAR          = -.80315E-2
MEAN_MOTION_DOT = -.1632262E-1
MEAN_MOTION_DDOT = 0

CCSDS_OMM_VERS = 2.0
CREATION_DATE  = 
ORIGINATOR     = 

OBJECT_NAME    = STARLINK-36742
OBJECT_ID      = 2026-036D
CENTER_NAME    = EARTH
REF_FRAME      = TEME
TIME_SYSTEM    = UTC
MEAN_ELEMENT_THEORY = SGP/SGP4

EPOCH          = 2026-03-03T04:00:01.999584
MEAN_MOTION    = 15.84353236
ECCENTRICITY   = .0001895
INCLINATION    = 42.9946
RA_OF_ASC_NODE = 289.7626
ARG_OF_PERICENTER = 276.8629
MEAN_ANOMALY   = 211.2346

EPHEMERIS_TYPE = 0
CLASSIFICATION_TYPE = U
NORAD_CAT_ID   = 67907
ELEMENT_SET_NO = 999
REV_AT_EPOCH   = 260
BSTAR          = -.78541E-2
MEAN_MOTION_DOT = -.1615808E-1
MEAN_MOTION_DDOT = 0

CCSDS_OMM_VERS = 2.0
CREATION_DATE  = 
ORIGINATOR     = 

OBJECT_NAME    = STARLINK-36827
OBJECT_ID      = 2026-036E
CENTER_NAME    = EARTH
REF_FRAME      = TEME
TIME_SYSTEM    = UTC
MEAN_ELEMENT_THEORY = SGP/SGP4

EPOCH          = 2026-03-03T04:00:01.999584
MEAN_MOTION    = 15.84523542
ECCENTRICITY   = .0001507
INCLINATION    = 42.9945
RA_OF_ASC_NODE = 289.7529
ARG_OF_PERICENTER = 279.6965
MEAN_ANOMALY   = 212.2749

EPHEMERIS_TYPE = 0
CLASSIFICATION_TYPE = U
NORAD_CAT_ID   = 67908
ELEMENT_SET_NO = 999
REV_AT_EPOCH   = 260
BSTAR          = -.784E-2
MEAN_MOTION_DOT = -.16246E-1
MEAN_MOTION_DDOT = 0

CCSDS_OMM_VERS = 2.0
CREATION_DATE  = 
ORIGINATOR     = 

OBJECT_NAME    = STARLINK-36822
OBJECT_ID      = 2026-036F
CENTER_NAME    = EARTH
REF_FRAME      = TEME
TIME_SYSTEM    = UTC
MEAN_ELEMENT_THEORY = SGP/SGP4

EPOCH          = 2026-03-03T04:00:01.999584
MEAN_MOTION    = 15.84705798
ECCENTRICITY   = .0001706
INCLINATION    = 42.9947
RA_OF_ASC_NODE = 289.7437
ARG_OF_PERICENTER = 281.7258
MEAN_ANOMALY   = 214.0237

EPHEMERIS_TYPE = 0
CLASSIFICATION_TYPE = U
NORAD_CAT_ID   = 67909
ELEMENT_SET_NO = 999
REV_AT_EPOCH   = 260
BSTAR          = -.77201E-2
MEAN_MOTION_DOT = -.1615551E-1
MEAN_MOTION_DDOT = 0

